[{"OBJECT_NAME":"STARLINK-4134","OBJECT_ID":"2022-086N","EPOCH":"2026-03-09T15:22:33.570048","MEAN_MOTION":15.08840197,"ECCENTRICITY":0.0001196,"INCLINATION":53.2174,"RA_OF_ASC_NODE":194.3497,"ARG_OF_PERICENTER":94.7121,"MEAN_ANOMALY":265.4008,"EPHEMERIS_TYPE":0,"CLASSIFICATION_TYPE":"U","NORAD_CAT_ID":53254,"ELEMENT_SET_NO":999,"REV_AT_EPOCH":20107,"BSTAR":6.7532e-6,"MEAN_MOTION_DOT":-1.8e-6,"MEAN_MOTION_DDOT":0},{"OBJECT_NAME":"OBJECT G","OBJECT_ID":"2026-027G","EPOCH":"2026-03-09T21:53:37.288032","MEAN_MOTION":15.12145257,"ECCENTRICITY":0.00120269,"INCLINATION":97.4906,"RA_OF_ASC_NODE":197.8999,"ARG_OF_PERICENTER":227.3105,"MEAN_ANOMALY":132.7114,"EPHEMERIS_TYPE":0,"CLASSIFICATION_TYPE":"U","NORAD_CAT_ID":67752,"ELEMENT_SET_NO":999,"REV_AT_EPOCH":389,"BSTAR":0.00053594907,"MEAN_MOTION_DOT":9.195e-5,"MEAN_MOTION_DDOT":0}]
